[{"OBJECT_NAME":"STARLINK-34533","OBJECT_ID":"2025-142V","EPOCH":"2026-03-09T23:20:59.104320","MEAN_MOTION":14.9831918,"ECCENTRICITY":0.00029794,"INCLINATION":70.0006,"RA_OF_ASC_NODE":313.7262,"ARG_OF_PERICENTER":274.2508,"MEAN_ANOMALY":85.8311,"EPHEMERIS_TYPE":0,"CLASSIFICATION_TYPE":"U","NORAD_CAT_ID":64715,"ELEMENT_SET_NO":999,"REV_AT_EPOCH":3950,"BSTAR":0.00061409259,"MEAN_MOTION_DOT":7.24e-5,"MEAN_MOTION_DDOT":0},{"OBJECT_NAME":"USA 40 R\/B","OBJECT_ID":"1989-061D","EPOCH":"2026-03-09T03:39:22.015296","MEAN_MOTION":7.88930493,"ECCENTRICITY":0.35649033,"INCLINATION":57.0362,"RA_OF_ASC_NODE":351.4607,"ARG_OF_PERICENTER":262.3636,"MEAN_ANOMALY":56.6482,"EPHEMERIS_TYPE":0,"CLASSIFICATION_TYPE":"U","NORAD_CAT_ID":20344,"ELEMENT_SET_NO":999,"REV_AT_EPOCH":20483,"BSTAR":0.00017580206,"MEAN_MOTION_DOT":2.18e-6,"MEAN_MOTION_DDOT":0}]
